<?xml version="1.0" encoding="UTF-8"?>
<kml xmlns="http://www.opengis.net/kml/2.2" xmlns:gx="http://www.google.com/kml/ext/2.2">
    <Document id="321">
        <Placemark id="323">
            <name>Crisnejas_ Augusto Weberbauer</name>
            <description>Crisnejas_ Augusto Weberbauer: Altitude = 2536 meters</description>
            <Point id="322">
                <coordinates>-78.50000,-7.166667,2536</coordinates>
                <altitudeMode>absolute</altitudeMode>
            </Point>
        </Placemark>
        <Placemark id="325">
            <name>Crisnejas_ Aylambo</name>
            <description>Crisnejas_ Aylambo: Altitude = 2894 meters</description>
            <Point id="324">
                <coordinates>-78.51011,-7.193450,2894</coordinates>
                <altitudeMode>absolute</altitudeMode>
            </Point>
        </Placemark>
        <Placemark id="327">
            <name>Crisnejas_ Cachachi</name>
            <description>Crisnejas_ Cachachi: Altitude = 3140 meters</description>
            <Point id="326">
                <coordinates>-78.26869,-7.450944,3140</coordinates>
                <altitudeMode>absolute</altitudeMode>
            </Point>
        </Placemark>
        <Placemark id="329">
            <name>Crisnejas_ Cajabamba</name>
            <description>Crisnejas_ Cajabamba: Altitude = 2480 meters</description>
            <Point id="328">
                <coordinates>-78.05111,-7.621667,2480</coordinates>
                <altitudeMode>absolute</altitudeMode>
            </Point>
        </Placemark>
        <Placemark id="331">
            <name>Crisnejas_ Chaquicocha</name>
            <description>Crisnejas_ Chaquicocha: Altitude = 2040 meters</description>
            <Point id="330">
                <coordinates>-78.15000,-7.533333,2040</coordinates>
                <altitudeMode>absolute</altitudeMode>
            </Point>
        </Placemark>
        <Placemark id="333">
            <name>Crisnejas_ Hacienda Jocos</name>
            <description>Crisnejas_ Hacienda Jocos: Altitude = 2720 meters</description>
            <Point id="332">
                <coordinates>-78.00027,-7.516944,2720</coordinates>
                <altitudeMode>absolute</altitudeMode>
            </Point>
        </Placemark>
        <Placemark id="335">
            <name>Crisnejas_ Huamachuco</name>
            <description>Crisnejas_ Huamachuco: Altitude = 3030 meters</description>
            <Point id="334">
                <coordinates>-78.04000,-7.819278,3030</coordinates>
                <altitudeMode>absolute</altitudeMode>
            </Point>
        </Placemark>
        <Placemark id="337">
            <name>Crisnejas_ Huangacocha</name>
            <description>Crisnejas_ Huangacocha: Altitude = 3763 meters</description>
            <Point id="336">
                <coordinates>-78.06810,-7.937608,3763</coordinates>
                <altitudeMode>absolute</altitudeMode>
            </Point>
        </Placemark>
        <Placemark id="339">
            <name>Crisnejas_ Jesus</name>
            <description>Crisnejas_ Jesus: Altitude = 2545 meters</description>
            <Point id="338">
                <coordinates>-78.41263,-7.229444,2545</coordinates>
                <altitudeMode>absolute</altitudeMode>
            </Point>
        </Placemark>
        <Placemark id="341">
            <name>Crisnejas_ La Encañada</name>
            <description>Crisnejas_ La Encañada: Altitude = 2980 meters</description>
            <Point id="340">
                <coordinates>-78.33313,-7.123272,2980</coordinates>
                <altitudeMode>absolute</altitudeMode>
            </Point>
        </Placemark>
        <Placemark id="343">
            <name>Crisnejas_ La Victoria</name>
            <description>Crisnejas_ La Victoria: Altitude = 2630 meters</description>
            <Point id="342">
                <coordinates>-78.45947,-7.191186,2630</coordinates>
                <altitudeMode>absolute</altitudeMode>
            </Point>
        </Placemark>
        <Placemark id="345">
            <name>Crisnejas_ Matara</name>
            <description>Crisnejas_ Matara: Altitude = 2830 meters</description>
            <Point id="344">
                <coordinates>-78.25350,-7.244194,2830</coordinates>
                <altitudeMode>absolute</altitudeMode>
            </Point>
        </Placemark>
        <Placemark id="347">
            <name>Crisnejas_ Namora</name>
            <description>Crisnejas_ Namora: Altitude = 2700 meters</description>
            <Point id="346">
                <coordinates>-78.33333,-7.200000,2700</coordinates>
                <altitudeMode>absolute</altitudeMode>
            </Point>
        </Placemark>
        <Placemark id="349">
            <name>Crisnejas_ Penipampa</name>
            <description>Crisnejas_ Penipampa: Altitude = 3366 meters</description>
            <Point id="348">
                <coordinates>-78.33361,-7.316944,3366</coordinates>
                <altitudeMode>absolute</altitudeMode>
            </Point>
        </Placemark>
        <Placemark id="351">
            <name>Crisnejas_ San Marcos</name>
            <description>Crisnejas_ San Marcos: Altitude = 2190 meters</description>
            <Point id="350">
                <coordinates>-78.17258,-7.322500,2190</coordinates>
                <altitudeMode>absolute</altitudeMode>
            </Point>
        </Placemark>
        <Placemark id="353">
            <name>Crisnejas_ Sondor-Matara</name>
            <description>Crisnejas_ Sondor-Matara: Altitude = 2908 meters</description>
            <Point id="352">
                <coordinates>-78.21256,-7.236875,2908</coordinates>
                <altitudeMode>absolute</altitudeMode>
            </Point>
        </Placemark>
        <Placemark id="355">
            <name>Huayabamba_ Pachiza</name>
            <description>Huayabamba_ Pachiza: Altitude = 380 meters</description>
            <Point id="354">
                <coordinates>-76.78133,-7.286853,380</coordinates>
                <altitudeMode>absolute</altitudeMode>
            </Point>
        </Placemark>
        <Placemark id="357">
            <name>Huayabamba_ Rodriguez De Mendoza</name>
            <description>Huayabamba_ Rodriguez De Mendoza: Altitude = 1642 meters</description>
            <Point id="356">
                <coordinates>-77.40747,-6.316517,1642</coordinates>
                <altitudeMode>absolute</altitudeMode>
            </Point>
        </Placemark>
        <Placemark id="359">
            <name>Intercuenca Alto Huallaga_ Ambo - Idma</name>
            <description>Intercuenca Alto Huallaga_ Ambo - Idma: Altitude =  3025 meters</description>
            <Point id="358">
                <coordinates> -76.1669,-10.13361, 3025</coordinates>
                <altitudeMode>absolute</altitudeMode>
            </Point>
        </Placemark>
        <Placemark id="361">
            <name>Intercuenca Alto Huallaga_ Aucayacu</name>
            <description>Intercuenca Alto Huallaga_ Aucayacu: Altitude = 586 meters</description>
            <Point id="360">
                <coordinates>-76.11170,-8.929869,586</coordinates>
                <altitudeMode>absolute</altitudeMode>
            </Point>
        </Placemark>
        <Placemark id="363">
            <name>Intercuenca Alto Huallaga_ Aucayacu2</name>
            <description>Intercuenca Alto Huallaga_ Aucayacu2: Altitude = 560 meters</description>
            <Point id="362">
                <coordinates>-76.11166,-8.929722,560</coordinates>
                <altitudeMode>absolute</altitudeMode>
            </Point>
        </Placemark>
        <Placemark id="365">
            <name>Intercuenca Alto Huallaga_ Cachicoto</name>
            <description>Intercuenca Alto Huallaga_ Cachicoto: Altitude = 1140 meters</description>
            <Point id="364">
                <coordinates>-76.35027,-9.183611,1140</coordinates>
                <altitudeMode>absolute</altitudeMode>
            </Point>
        </Placemark>
        <Placemark id="367">
            <name>Intercuenca Alto Huallaga_ Campanilla</name>
            <description>Intercuenca Alto Huallaga_ Campanilla: Altitude = 290 meters</description>
            <Point id="366">
                <coordinates>-76.67000,-7.442200,290</coordinates>
                <altitudeMode>absolute</altitudeMode>
            </Point>
        </Placemark>
        <Placemark id="369">
            <name>Intercuenca Alto Huallaga_ Canchan</name>
            <description>Intercuenca Alto Huallaga_ Canchan: Altitude = 1986 meters</description>
            <Point id="368">
                <coordinates>-76.28805,-9.948889,1986</coordinates>
                <altitudeMode>absolute</altitudeMode>
            </Point>
        </Placemark>
        <Placemark id="371">
            <name>Intercuenca Alto Huallaga_ Carpish</name>
            <description>Intercuenca Alto Huallaga_ Carpish: Altitude = 1950 meters</description>
            <Point id="370">
                <coordinates>-76.08361,-9.666944,1950</coordinates>
                <altitudeMode>absolute</altitudeMode>
            </Point>
        </Placemark>
        <Placemark id="373">
            <name>Intercuenca Alto Huallaga_ Carpish2</name>
            <description>Intercuenca Alto Huallaga_ Carpish2: Altitude = 2705 meters</description>
            <Point id="372">
                <coordinates>-76.06666,-9.666667,2705</coordinates>
                <altitudeMode>absolute</altitudeMode>
            </Point>
        </Placemark>
        <Placemark id="375">
            <name>Intercuenca Alto Huallaga_ Chaglla</name>
            <description>Intercuenca Alto Huallaga_ Chaglla: Altitude = 2800 meters</description>
            <Point id="374">
                <coordinates>-75.91500,-9.847222,2800</coordinates>
                <altitudeMode>absolute</altitudeMode>
            </Point>
        </Placemark>
        <Placemark id="377">
            <name>Intercuenca Alto Huallaga_ Huanuco</name>
            <description>Intercuenca Alto Huallaga_ Huanuco: Altitude = 1947 meters</description>
            <Point id="376">
                <coordinates>-76.24800,-9.961011,1947</coordinates>
                <altitudeMode>absolute</altitudeMode>
            </Point>
        </Placemark>
        <Placemark id="379">
            <name>Intercuenca Alto Huallaga_ Huariaca</name>
            <description>Intercuenca Alto Huallaga_ Huariaca: Altitude =  3355 meters</description>
            <Point id="378">
                <coordinates> -76.1836,-10.43361, 3355</coordinates>
                <altitudeMode>absolute</altitudeMode>
            </Point>
        </Placemark>
        <Placemark id="381">
            <name>Intercuenca Alto Huallaga_ Jacas Chico</name>
            <description>Intercuenca Alto Huallaga_ Jacas Chico: Altitude = 3673 meters</description>
            <Point id="380">
                <coordinates>-76.50027,-9.883611,3673</coordinates>
                <altitudeMode>absolute</altitudeMode>
            </Point>
        </Placemark>
        <Placemark id="383">
            <name>Intercuenca Alto Huallaga_ La Divisoria</name>
            <description>Intercuenca Alto Huallaga_ La Divisoria: Altitude = 1961 meters</description>
            <Point id="382">
                <coordinates>-75.81393,-9.200908,1961</coordinates>
                <altitudeMode>absolute</altitudeMode>
            </Point>
        </Placemark>
        <Placemark id="385">
            <name>Intercuenca Alto Huallaga_ La Morada</name>
            <description>Intercuenca Alto Huallaga_ La Morada: Altitude = 542 meters</description>
            <Point id="384">
                <coordinates>-76.15027,-8.750278,542</coordinates>
                <altitudeMode>absolute</altitudeMode>
            </Point>
        </Placemark>
        <Placemark id="387">
            <name>Intercuenca Alto Huallaga_ Milpo</name>
            <description>Intercuenca Alto Huallaga_ Milpo: Altitude =  4256 meters</description>
            <Point id="386">
                <coordinates> -76.2169,-10.60027, 4256</coordinates>
                <altitudeMode>absolute</altitudeMode>
            </Point>
        </Placemark>
        <Placemark id="389">
            <name>Intercuenca Alto Huallaga_ Ollates</name>
            <description>Intercuenca Alto Huallaga_ Ollates: Altitude = 500 meters</description>
            <Point id="388">
                <coordinates>-76.41694,-8.416944,500</coordinates>
                <altitudeMode>absolute</altitudeMode>
            </Point>
        </Placemark>
        <Placemark id="391">
            <name>Intercuenca Alto Huallaga_ Ongon</name>
            <description>Intercuenca Alto Huallaga_ Ongon: Altitude = 1315 meters</description>
            <Point id="390">
                <coordinates>-77.01220,-8.242058,1315</coordinates>
                <altitudeMode>absolute</altitudeMode>
            </Point>
        </Placemark>
        <Placemark id="393">
            <name>Intercuenca Alto Huallaga_ Palmawasi</name>
            <description>Intercuenca Alto Huallaga_ Palmawasi: Altitude = 500 meters</description>
            <Point id="392">
                <coordinates>-76.41694,-8.416944,500</coordinates>
                <altitudeMode>absolute</altitudeMode>
            </Point>
        </Placemark>
        <Placemark id="395">
            <name>Intercuenca Alto Huallaga_ Pariamarca</name>
            <description>Intercuenca Alto Huallaga_ Pariamarca: Altitude =  3940 meters</description>
            <Point id="394">
                <coordinates> -76.1502,-10.65027, 3940</coordinates>
                <altitudeMode>absolute</altitudeMode>
            </Point>
        </Placemark>
        <Placemark id="397">
            <name>Intercuenca Alto Huallaga_ San Rafael</name>
            <description>Intercuenca Alto Huallaga_ San Rafael: Altitude =  2722 meters</description>
            <Point id="396">
                <coordinates> -76.1694,-10.32166, 2722</coordinates>
                <altitudeMode>absolute</altitudeMode>
            </Point>
        </Placemark>
        <Placemark id="399">
            <name>Intercuenca Alto Huallaga_ Tananta</name>
            <description>Intercuenca Alto Huallaga_ Tananta: Altitude = 480 meters</description>
            <Point id="398">
                <coordinates>-76.59555,-8.109722,480</coordinates>
                <altitudeMode>absolute</altitudeMode>
            </Point>
        </Placemark>
        <Placemark id="401">
            <name>Intercuenca Alto Huallaga_ Tingo Maria</name>
            <description>Intercuenca Alto Huallaga_ Tingo Maria: Altitude = 660 meters</description>
            <Point id="400">
                <coordinates>-75.99972,-9.288056,660</coordinates>
                <altitudeMode>absolute</altitudeMode>
            </Point>
        </Placemark>
        <Placemark id="403">
            <name>Intercuenca Alto Huallaga_ Tingo Maria2</name>
            <description>Intercuenca Alto Huallaga_ Tingo Maria2: Altitude = 644 meters</description>
            <Point id="402">
                <coordinates>-76.00511,-9.289989,644</coordinates>
                <altitudeMode>absolute</altitudeMode>
            </Point>
        </Placemark>
        <Placemark id="405">
            <name>Intercuenca Alto Huallaga_ Tocache</name>
            <description>Intercuenca Alto Huallaga_ Tocache: Altitude = 528 meters</description>
            <Point id="404">
                <coordinates>-76.51694,-8.183611,528</coordinates>
                <altitudeMode>absolute</altitudeMode>
            </Point>
        </Placemark>
        <Placemark id="407">
            <name>Intercuenca Alto Huallaga_ Tocache2</name>
            <description>Intercuenca Alto Huallaga_ Tocache2: Altitude = 512 meters</description>
            <Point id="406">
                <coordinates>-76.51666,-8.183333,512</coordinates>
                <altitudeMode>absolute</altitudeMode>
            </Point>
        </Placemark>
        <Placemark id="409">
            <name>Intercuenca Alto Huallaga_ Tulumayo</name>
            <description>Intercuenca Alto Huallaga_ Tulumayo: Altitude = 640 meters</description>
            <Point id="408">
                <coordinates>-75.90027,-9.100278,640</coordinates>
                <altitudeMode>absolute</altitudeMode>
            </Point>
        </Placemark>
        <Placemark id="411">
            <name>Intercuenca Alto Huallaga_ Yanahuanca</name>
            <description>Intercuenca Alto Huallaga_ Yanahuanca: Altitude =  3150 meters</description>
            <Point id="410">
                <coordinates> -76.5080,-10.49138, 3150</coordinates>
                <altitudeMode>absolute</altitudeMode>
            </Point>
        </Placemark>
        <Placemark id="413">
            <name>Intercuenca Alto marañon IV_ Bambamarca</name>
            <description>Intercuenca Alto marañon IV_ Bambamarca: Altitude = 2536 meters</description>
            <Point id="412">
                <coordinates>-78.51833,-6.676389,2536</coordinates>
                <altitudeMode>absolute</altitudeMode>
            </Point>
        </Placemark>
        <Placemark id="415">
            <name>Intercuenca Alto marañon IV_ Celendin</name>
            <description>Intercuenca Alto marañon IV_ Celendin: Altitude = 2620 meters</description>
            <Point id="414">
                <coordinates>-78.12217,-6.850000,2620</coordinates>
                <altitudeMode>absolute</altitudeMode>
            </Point>
        </Placemark>
        <Placemark id="417">
            <name>Intercuenca Alto marañon IV_ Chonta</name>
            <description>Intercuenca Alto marañon IV_ Chonta: Altitude = 2750 meters</description>
            <Point id="416">
                <coordinates>-78.45000,-6.566667,2750</coordinates>
                <altitudeMode>absolute</altitudeMode>
            </Point>
        </Placemark>
        <Placemark id="419">
            <name>Intercuenca Alto marañon IV_ Conchan</name>
            <description>Intercuenca Alto marañon IV_ Conchan: Altitude = 2400 meters</description>
            <Point id="418">
                <coordinates>-78.65000,-6.433333,2400</coordinates>
                <altitudeMode>absolute</altitudeMode>
            </Point>
        </Placemark>
        <Placemark id="421">
            <name>Intercuenca Alto marañon IV_ El Palto</name>
            <description>Intercuenca Alto marañon IV_ El Palto: Altitude = 149 meters</description>
            <Point id="420">
                <coordinates>-78.47647,-5.986431,149</coordinates>
                <altitudeMode>absolute</altitudeMode>
            </Point>
        </Placemark>
        <Placemark id="423">
            <name>Intercuenca Alto marañon IV_ Hacienda Llaucan</name>
            <description>Intercuenca Alto marañon IV_ Hacienda Llaucan: Altitude = 2600 meters</description>
            <Point id="422">
                <coordinates>-78.53333,-6.750000,2600</coordinates>
                <altitudeMode>absolute</altitudeMode>
            </Point>
        </Placemark>
        <Placemark id="425">
            <name>Intercuenca Alto marañon IV_ Hacienda Negritos</name>
            <description>Intercuenca Alto marañon IV_ Hacienda Negritos: Altitude = 3500 meters</description>
            <Point id="424">
                <coordinates>-78.53333,-6.900000,3500</coordinates>
                <altitudeMode>absolute</altitudeMode>
            </Point>
        </Placemark>
        <Placemark id="427">
            <name>Intercuenca Alto marañon IV_ Hualgayoc</name>
            <description>Intercuenca Alto marañon IV_ Hualgayoc: Altitude = 3510 meters</description>
            <Point id="426">
                <coordinates>-78.61666,-6.766667,3510</coordinates>
                <altitudeMode>absolute</altitudeMode>
            </Point>
        </Placemark>
        <Placemark id="429">
            <name>Intercuenca Alto marañon IV_ Jadibamba</name>
            <description>Intercuenca Alto marañon IV_ Jadibamba: Altitude = 3600 meters</description>
            <Point id="428">
                <coordinates>-78.40000,-6.816667,3600</coordinates>
                <altitudeMode>absolute</altitudeMode>
            </Point>
        </Placemark>
        <Placemark id="431">
            <name>Intercuenca Alto marañon IV_ La Llica</name>
            <description>Intercuenca Alto marañon IV_ La Llica: Altitude = 2800 meters</description>
            <Point id="430">
                <coordinates>-78.51880,-6.798164,2800</coordinates>
                <altitudeMode>absolute</altitudeMode>
            </Point>
        </Placemark>
        <Placemark id="433">
            <name>Intercuenca Alto marañon IV_ Llaucano</name>
            <description>Intercuenca Alto marañon IV_ Llaucano: Altitude = 2750 meters</description>
            <Point id="432">
                <coordinates>-78.53333,-6.733333,2750</coordinates>
                <altitudeMode>absolute</altitudeMode>
            </Point>
        </Placemark>
        <Placemark id="435">
            <name>Intercuenca Alto marañon IV_ Michiquillay</name>
            <description>Intercuenca Alto marañon IV_ Michiquillay: Altitude =  3500 meters</description>
            <Point id="434">
                <coordinates> -78.5333,-6.900000, 3500</coordinates>
                <altitudeMode>absolute</altitudeMode>
            </Point>
        </Placemark>
        <Placemark id="437">
            <name>Intercuenca Alto marañon IV_ Pimpingos</name>
            <description>Intercuenca Alto marañon IV_ Pimpingos: Altitude = 450 meters</description>
            <Point id="436">
                <coordinates>-78.76880,-6.015764,450</coordinates>
                <altitudeMode>absolute</altitudeMode>
            </Point>
        </Placemark>
        <Placemark id="439">
            <name>Intercuenca Alto marañon IV_ Quebrada Shugar</name>
            <description>Intercuenca Alto marañon IV_ Quebrada Shugar: Altitude = 3292.7 meters</description>
            <Point id="438">
                <coordinates>-78.45694,-6.687778,3292.7</coordinates>
                <altitudeMode>absolute</altitudeMode>
            </Point>
        </Placemark>
        <Placemark id="441">
            <name>Intercuenca Alto marañon IV_ Samangay</name>
            <description>Intercuenca Alto marañon IV_ Samangay: Altitude = 3240 meters</description>
            <Point id="440">
                <coordinates>-78.57413,-6.629514,3240</coordinates>
                <altitudeMode>absolute</altitudeMode>
            </Point>
        </Placemark>
        <Placemark id="443">
            <name>Intercuenca Alto marañon IV_ San Juan De Lacamaca</name>
            <description>Intercuenca Alto marañon IV_ San Juan De Lacamaca: Altitude = 3030 meters</description>
            <Point id="442">
                <coordinates>-78.57552,-6.700000,3030</coordinates>
                <altitudeMode>absolute</altitudeMode>
            </Point>
        </Placemark>
        <Placemark id="445">
            <name>Intercuenca Alto marañon IV_ Tacabamba</name>
            <description>Intercuenca Alto marañon IV_ Tacabamba: Altitude = 2275 meters</description>
            <Point id="444">
                <coordinates>-78.61694,-6.383611,2275</coordinates>
                <altitudeMode>absolute</altitudeMode>
            </Point>
        </Placemark>
        <Placemark id="447">
            <name>Intercuenca Alto marañon V_ Buldibuyo</name>
            <description>Intercuenca Alto marañon V_ Buldibuyo: Altitude = 3243 meters</description>
            <Point id="446">
                <coordinates>-77.36666,-8.116667,3243</coordinates>
                <altitudeMode>absolute</altitudeMode>
            </Point>
        </Placemark>
        <Placemark id="449">
            <name>Intercuenca Alto marañon V_ Chavin</name>
            <description>Intercuenca Alto marañon V_ Chavin: Altitude = 3210 meters</description>
            <Point id="448">
                <coordinates>-77.25000,-9.583333,3210</coordinates>
                <altitudeMode>absolute</altitudeMode>
            </Point>
        </Placemark>
        <Placemark id="451">
            <name>Intercuenca Alto marañon V_ Chavin2</name>
            <description>Intercuenca Alto marañon V_ Chavin2: Altitude = 3210 meters</description>
            <Point id="450">
                <coordinates>-77.17527,-9.586028,3210</coordinates>
                <altitudeMode>absolute</altitudeMode>
            </Point>
        </Placemark>
        <Placemark id="453">
            <name>Intercuenca Alto marañon V_ Dos De Mayo</name>
            <description>Intercuenca Alto marañon V_ Dos De Mayo: Altitude = 3650 meters</description>
            <Point id="452">
                <coordinates>-76.74552,-9.625222,3650</coordinates>
                <altitudeMode>absolute</altitudeMode>
            </Point>
        </Placemark>
        <Placemark id="455">
            <name>Intercuenca Alto marañon V_ Huallanca</name>
            <description>Intercuenca Alto marañon V_ Huallanca: Altitude = 3260 meters</description>
            <Point id="454">
                <coordinates>-76.95000,-9.883333,3260</coordinates>
                <altitudeMode>absolute</altitudeMode>
            </Point>
        </Placemark>
        <Placemark id="457">
            <name>Intercuenca Alto marañon V_ Huari</name>
            <description>Intercuenca Alto marañon V_ Huari: Altitude = 3149 meters</description>
            <Point id="456">
                <coordinates>-77.16666,-9.350000,3149</coordinates>
                <altitudeMode>absolute</altitudeMode>
            </Point>
        </Placemark>
        <Placemark id="459">
            <name>Intercuenca Alto marañon V_ Jacas Grande</name>
            <description>Intercuenca Alto marañon V_ Jacas Grande: Altitude = 3273 meters</description>
            <Point id="458">
                <coordinates>-76.76041,-9.543300,3273</coordinates>
                <altitudeMode>absolute</altitudeMode>
            </Point>
        </Placemark>
        <Placemark id="461">
            <name>Intercuenca Alto marañon V_ La Union</name>
            <description>Intercuenca Alto marañon V_ La Union: Altitude = 3201 meters</description>
            <Point id="460">
                <coordinates>-76.79263,-9.820336,3201</coordinates>
                <altitudeMode>absolute</altitudeMode>
            </Point>
        </Placemark>
        <Placemark id="463">
            <name>Intercuenca Alto marañon V_ Llata</name>
            <description>Intercuenca Alto marañon V_ Llata: Altitude = 3429 meters</description>
            <Point id="462">
                <coordinates>-76.78333,-9.550000,3429</coordinates>
                <altitudeMode>absolute</altitudeMode>
            </Point>
        </Placemark>
        <Placemark id="465">
            <name>Intercuenca Alto marañon V_ Pomabamba</name>
            <description>Intercuenca Alto marañon V_ Pomabamba: Altitude = 3000 meters</description>
            <Point id="464">
                <coordinates>-77.46666,-8.783333,3000</coordinates>
                <altitudeMode>absolute</altitudeMode>
            </Point>
        </Placemark>
        <Placemark id="467">
            <name>Intercuenca Alto marañon V_ Sihuas</name>
            <description>Intercuenca Alto marañon V_ Sihuas: Altitude = 2716 meters</description>
            <Point id="466">
                <coordinates>-77.63163,-8.546481,2716</coordinates>
                <altitudeMode>absolute</altitudeMode>
            </Point>
        </Placemark>
        <Placemark id="469">
            <name>Mantaro_ Acobamba</name>
            <description>Mantaro_ Acobamba: Altitude =  3236 meters</description>
            <Point id="468">
                <coordinates> -74.5677,-12.83750, 3236</coordinates>
                <altitudeMode>absolute</altitudeMode>
            </Point>
        </Placemark>
        <Placemark id="471">
            <name>Mantaro_ Acobambilla</name>
            <description>Mantaro_ Acobambilla: Altitude =  3795 meters</description>
            <Point id="470">
                <coordinates> -75.3166,-12.66666, 3795</coordinates>
                <altitudeMode>absolute</altitudeMode>
            </Point>
        </Placemark>
        <Placemark id="473">
            <name>Mantaro_ Acostambo</name>
            <description>Mantaro_ Acostambo: Altitude =  3650 meters</description>
            <Point id="472">
                <coordinates> -75.0356,-12.34233, 3650</coordinates>
                <altitudeMode>absolute</altitudeMode>
            </Point>
        </Placemark>
        <Placemark id="475">
            <name>Mantaro_ Allpachaca</name>
            <description>Mantaro_ Allpachaca: Altitude =  3600 meters</description>
            <Point id="474">
                <coordinates> -74.2666,-13.38333, 3600</coordinates>
                <altitudeMode>absolute</altitudeMode>
            </Point>
        </Placemark>
        <Placemark id="477">
            <name>Mantaro_ Allpachaca2</name>
            <description>Mantaro_ Allpachaca2: Altitude =  3550 meters</description>
            <Point id="476">
                <coordinates> -74.2688,-13.38861, 3550</coordinates>
                <altitudeMode>absolute</altitudeMode>
            </Point>
        </Placemark>
        <Placemark id="479">
            <name>Mantaro_ Alpamarca</name>
            <description>Mantaro_ Alpamarca: Altitude =  4715 meters</description>
            <Point id="478">
                <coordinates> -76.4502,-11.21694, 4715</coordinates>
                <altitudeMode>absolute</altitudeMode>
            </Point>
        </Placemark>
        <Placemark id="481">
            <name>Mantaro_ Andamarca</name>
            <description>Mantaro_ Andamarca: Altitude =  35335 meters</description>
            <Point id="480">
                <coordinates> -74.8336,-11.71694, 35335</coordinates>
                <altitudeMode>absolute</altitudeMode>
            </Point>
        </Placemark>
        <Placemark id="483">
            <name>Mantaro_ Carhuacayan</name>
            <description>Mantaro_ Carhuacayan: Altitude =  4150 meters</description>
            <Point id="482">
                <coordinates> -76.2833,-11.20000, 4150</coordinates>
                <altitudeMode>absolute</altitudeMode>
            </Point>
        </Placemark>
        <Placemark id="485">
            <name>Mantaro_ Casaracra</name>
            <description>Mantaro_ Casaracra: Altitude =  3850 meters</description>
            <Point id="484">
                <coordinates> -75.9500,-11.45000, 3850</coordinates>
                <altitudeMode>absolute</altitudeMode>
            </Point>
        </Placemark>
        <Placemark id="487">
            <name>Mantaro_ Cerro De Pasco</name>
            <description>Mantaro_ Cerro De Pasco: Altitude =  4260 meters</description>
            <Point id="486">
                <coordinates> -76.2641,-10.69333, 4260</coordinates>
                <altitudeMode>absolute</altitudeMode>
            </Point>
        </Placemark>
        <Placemark id="489">
            <name>Mantaro_ Colcabamba</name>
            <description>Mantaro_ Colcabamba: Altitude = 780 meters</description>
            <Point id="488">
                <coordinates> -74.6775,-12.40638,780</coordinates>
                <altitudeMode>absolute</altitudeMode>
            </Point>
        </Placemark>
        <Placemark id="491">
            <name>Mantaro_ Cosmos</name>
            <description>Mantaro_ Cosmos: Altitude =  4575 meters</description>
            <Point id="490">
                <coordinates> -75.5212,-12.14862, 4575</coordinates>
                <altitudeMode>absolute</altitudeMode>
            </Point>
        </Placemark>
        <Placemark id="493">
            <name>Mantaro_ Hacienda Tocaz</name>
            <description>Mantaro_ Hacienda Tocaz: Altitude =  2950 meters</description>
            <Point id="492">
                <coordinates> -74.6132,-12.49952, 2950</coordinates>
                <altitudeMode>absolute</altitudeMode>
            </Point>
        </Placemark>
        <Placemark id="495">
            <name>Mantaro_ Huamanga</name>
            <description>Mantaro_ Huamanga: Altitude =  2761 meters</description>
            <Point id="494">
                <coordinates> -74.2369,-13.15000, 2761</coordinates>
                <altitudeMode>absolute</altitudeMode>
            </Point>
        </Placemark>
        <Placemark id="497">
            <name>Mantaro_ Huamanga2</name>
            <description>Mantaro_ Huamanga2: Altitude =  2782 meters</description>
            <Point id="496">
                <coordinates> -74.2197,-13.14825, 2782</coordinates>
                <altitudeMode>absolute</altitudeMode>
            </Point>
        </Placemark>
        <Placemark id="499">
            <name>Mantaro_ Huancalpi</name>
            <description>Mantaro_ Huancalpi: Altitude =  3800 meters</description>
            <Point id="498">
                <coordinates> -75.2419,-12.58000, 3800</coordinates>
                <altitudeMode>absolute</altitudeMode>
            </Point>
        </Placemark>
        <Placemark id="501">
            <name>Mantaro_ Huancavelica</name>
            <description>Mantaro_ Huancavelica: Altitude =  3676 meters</description>
            <Point id="500">
                <coordinates> -75.0122,-12.78055, 3676</coordinates>
                <altitudeMode>absolute</altitudeMode>
            </Point>
        </Placemark>
        <Placemark id="503">
            <name>Mantaro_ Huanta Gore</name>
            <description>Mantaro_ Huanta Gore: Altitude = 735 meters</description>
            <Point id="502">
                <coordinates>74.233278,-12.9475 ,735</coordinates>
                <altitudeMode>absolute</altitudeMode>
            </Point>
        </Placemark>
        <Placemark id="505">
            <name>Mantaro_ Huayao</name>
            <description>Mantaro_ Huayao: Altitude =  3308 meters</description>
            <Point id="504">
                <coordinates> -75.3227,-12.03833, 3308</coordinates>
                <altitudeMode>absolute</altitudeMode>
            </Point>
        </Placemark>
        <Placemark id="507">
            <name>Mantaro_ Ingenio</name>
            <description>Mantaro_ Ingenio: Altitude =  3450 meters</description>
            <Point id="506">
                <coordinates> -75.2558,-11.87944, 3450</coordinates>
                <altitudeMode>absolute</altitudeMode>
            </Point>
        </Placemark>
        <Placemark id="509">
            <name>Mantaro_ Jauja</name>
            <description>Mantaro_ Jauja: Altitude =  3322 meters</description>
            <Point id="508">
                <coordinates> -75.4744,-11.78361, 3322</coordinates>
                <altitudeMode>absolute</altitudeMode>
            </Point>
        </Placemark>
        <Placemark id="511">
            <name>Mantaro_ Junin</name>
            <description>Mantaro_ Junin: Altitude =  4120 meters</description>
            <Point id="510">
                <coordinates> -75.9997,-11.13527, 4120</coordinates>
                <altitudeMode>absolute</altitudeMode>
            </Point>
        </Placemark>
        <Placemark id="513">
            <name>Mantaro_ La Cruzada</name>
            <description>Mantaro_ La Cruzada: Altitude =  4600 meters</description>
            <Point id="512">
                <coordinates> -76.4000,-11.03333, 4600</coordinates>
                <altitudeMode>absolute</altitudeMode>
            </Point>
        </Placemark>
        <Placemark id="515">
            <name>Mantaro_ La Oroya</name>
            <description>Mantaro_ La Oroya: Altitude = 860 meters</description>
            <Point id="514">
                <coordinates> -75.9585,-11.56762,860</coordinates>
                <altitudeMode>absolute</altitudeMode>
            </Point>
        </Placemark>
        <Placemark id="517">
            <name>Mantaro_ La Quinua</name>
            <description>Mantaro_ La Quinua: Altitude =  3260 meters</description>
            <Point id="516">
                <coordinates> -74.1413,-13.05527, 3260</coordinates>
                <altitudeMode>absolute</altitudeMode>
            </Point>
        </Placemark>
        <Placemark id="519">
            <name>Mantaro_ Laive</name>
            <description>Mantaro_ Laive: Altitude =  3990 meters</description>
            <Point id="518">
                <coordinates> -75.3605,-12.25222, 3990</coordinates>
                <altitudeMode>absolute</altitudeMode>
            </Point>
        </Placemark>
        <Placemark id="521">
            <name>Mantaro_ Lircay</name>
            <description>Mantaro_ Lircay: Altitude =  3150 meters</description>
            <Point id="520">
                <coordinates> -74.7177,-12.98166, 3150</coordinates>
                <altitudeMode>absolute</altitudeMode>
            </Point>
        </Placemark>
        <Placemark id="523">
            <name>Mantaro_ Luricocha</name>
            <description>Mantaro_ Luricocha: Altitude =  2625 meters</description>
            <Point id="522">
                <coordinates> -74.2333,-12.81666, 2625</coordinates>
                <altitudeMode>absolute</altitudeMode>
            </Point>
        </Placemark>
        <Placemark id="525">
            <name>Mantaro_ Manta</name>
            <description>Mantaro_ Manta: Altitude =  3750 meters</description>
            <Point id="524">
                <coordinates> -75.2000,-12.61666, 3750</coordinates>
                <altitudeMode>absolute</altitudeMode>
            </Point>
        </Placemark>
        <Placemark id="527">
            <name>Mantaro_ Marcapomacocha</name>
            <description>Mantaro_ Marcapomacocha: Altitude =  4479 meters</description>
            <Point id="526">
                <coordinates> -76.3250,-11.40444, 4479</coordinates>
                <altitudeMode>absolute</altitudeMode>
            </Point>
        </Placemark>
        <Placemark id="529">
            <name>Mantaro_ Matibamba</name>
            <description>Mantaro_ Matibamba: Altitude =  2200 meters</description>
            <Point id="528">
                <coordinates> -74.8166,-12.08333, 2200</coordinates>
                <altitudeMode>absolute</altitudeMode>
            </Point>
        </Placemark>
        <Placemark id="531">
            <name>Mantaro_ Pachachaca</name>
            <description>Mantaro_ Pachachaca: Altitude =  3990 meters</description>
            <Point id="530">
                <coordinates> -76.0333,-11.61666, 3990</coordinates>
                <altitudeMode>absolute</altitudeMode>
            </Point>
        </Placemark>
        <Placemark id="533">
            <name>Mantaro_ Pachachaca2</name>
            <description>Mantaro_ Pachachaca2: Altitude =  3971 meters</description>
            <Point id="532">
                <coordinates> -75.9166,-11.50000, 3971</coordinates>
                <altitudeMode>absolute</altitudeMode>
            </Point>
        </Placemark>
        <Placemark id="535">
            <name>Mantaro_ Pampas</name>
            <description>Mantaro_ Pampas: Altitude =  3260 meters</description>
            <Point id="534">
                <coordinates> -74.8885,-12.30000, 3260</coordinates>
                <altitudeMode>absolute</altitudeMode>
            </Point>
        </Placemark>
        <Placemark id="537">
            <name>Mantaro_ Paucarbamba</name>
            <description>Mantaro_ Paucarbamba: Altitude =  3000 meters</description>
            <Point id="536">
                <coordinates> -74.6051,-12.45198, 3000</coordinates>
                <altitudeMode>absolute</altitudeMode>
            </Point>
        </Placemark>
        <Placemark id="539">
            <name>Mantaro_ Pilchaca</name>
            <description>Mantaro_ Pilchaca: Altitude =  3570 meters</description>
            <Point id="538">
                <coordinates> -75.0833,-12.35000, 3570</coordinates>
                <altitudeMode>absolute</altitudeMode>
            </Point>
        </Placemark>
        <Placemark id="541">
            <name>Mantaro_ Pomacocha</name>
            <description>Mantaro_ Pomacocha: Altitude =  4270 meters</description>
            <Point id="540">
                <coordinates> -76.1166,-11.71666, 4270</coordinates>
                <altitudeMode>absolute</altitudeMode>
            </Point>
        </Placemark>
        <Placemark id="543">
            <name>Mantaro_ Pucara</name>
            <description>Mantaro_ Pucara: Altitude =  4300 meters</description>
            <Point id="542">
                <coordinates> -76.0666,-11.58333, 4300</coordinates>
                <altitudeMode>absolute</altitudeMode>
            </Point>
        </Placemark>
        <Placemark id="545">
            <name>Mantaro_ Punabamba</name>
            <description>Mantaro_ Punabamba: Altitude =  4350 meters</description>
            <Point id="544">
                <coordinates> -76.0833,-11.48333, 4350</coordinates>
                <altitudeMode>absolute</altitudeMode>
            </Point>
        </Placemark>
        <Placemark id="547">
            <name>Mantaro_ Salcabamba</name>
            <description>Mantaro_ Salcabamba: Altitude =  2900 meters</description>
            <Point id="546">
                <coordinates> -74.8166,-12.15000, 2900</coordinates>
                <altitudeMode>absolute</altitudeMode>
            </Point>
        </Placemark>
        <Placemark id="549">
            <name>Mantaro_ San Juan De Jarpa</name>
            <description>Mantaro_ San Juan De Jarpa: Altitude =  3726 meters</description>
            <Point id="548">
                <coordinates> -75.4319,-12.12388, 3726</coordinates>
                <altitudeMode>absolute</altitudeMode>
            </Point>
        </Placemark>
        <Placemark id="551">
            <name>Mantaro_ San Juan De Jarpa2</name>
            <description>Mantaro_ San Juan De Jarpa2: Altitude =  3726 meters</description>
            <Point id="550">
                <coordinates> -75.4304,-12.05810, 3726</coordinates>
                <altitudeMode>absolute</altitudeMode>
            </Point>
        </Placemark>
        <Placemark id="553">
            <name>Mantaro_ San Lorenzo</name>
            <description>Mantaro_ San Lorenzo: Altitude =  2600 meters</description>
            <Point id="552">
                <coordinates> -74.7691,-12.30533, 2600</coordinates>
                <altitudeMode>absolute</altitudeMode>
            </Point>
        </Placemark>
        <Placemark id="555">
            <name>Mantaro_ San Pedro De Cachi</name>
            <description>Mantaro_ San Pedro De Cachi: Altitude =  3188 meters</description>
            <Point id="554">
                <coordinates> -74.3919,-13.08361, 3188</coordinates>
                <altitudeMode>absolute</altitudeMode>
            </Point>
        </Placemark>
        <Placemark id="557">
            <name>Mantaro_ San Pedro De Cachi2</name>
            <description>Mantaro_ San Pedro De Cachi2: Altitude =  3188 meters</description>
            <Point id="556">
                <coordinates> -74.3985,-13.08659, 3188</coordinates>
                <altitudeMode>absolute</altitudeMode>
            </Point>
        </Placemark>
        <Placemark id="559">
            <name>Mantaro_ San Pedro De Chuclu</name>
            <description>Mantaro_ San Pedro De Chuclu: Altitude =  3380 meters</description>
            <Point id="558">
                <coordinates> -75.4997,-11.75755, 3380</coordinates>
                <altitudeMode>absolute</altitudeMode>
            </Point>
        </Placemark>
        <Placemark id="561">
            <name>Mantaro_ Santa Ana</name>
            <description>Mantaro_ Santa Ana: Altitude =  3295 meters</description>
            <Point id="560">
                <coordinates> -75.2208,-12.00416, 3295</coordinates>
                <altitudeMode>absolute</altitudeMode>
            </Point>
        </Placemark>
        <Placemark id="563">
            <name>Mantaro_ Santa Rita</name>
            <description>Mantaro_ Santa Rita: Altitude =  4408 meters</description>
            <Point id="562">
                <coordinates> -76.1166,-11.58333, 4408</coordinates>
                <altitudeMode>absolute</altitudeMode>
            </Point>
        </Placemark>
        <Placemark id="565">
            <name>Mantaro_ Shullcas</name>
            <description>Mantaro_ Shullcas: Altitude =  3510 meters</description>
            <Point id="564">
                <coordinates> -75.1666,-12.00000, 3510</coordinates>
                <altitudeMode>absolute</altitudeMode>
            </Point>
        </Placemark>
        <Placemark id="567">
            <name>Mantaro_ Taza Oroya</name>
            <description>Mantaro_ Taza Oroya: Altitude =  3950 meters</description>
            <Point id="566">
                <coordinates> -75.9234,-11.52491, 3950</coordinates>
                <altitudeMode>absolute</altitudeMode>
            </Point>
        </Placemark>
        <Placemark id="569">
            <name>Mantaro_ Telepaccha</name>
            <description>Mantaro_ Telepaccha: Altitude =  4400 meters</description>
            <Point id="568">
                <coordinates> -75.3000,-12.75000, 4400</coordinates>
                <altitudeMode>absolute</altitudeMode>
            </Point>
        </Placemark>
        <Placemark id="571">
            <name>Mantaro_ Tuctu Golf</name>
            <description>Mantaro_ Tuctu Golf: Altitude =  4500 meters</description>
            <Point id="570">
                <coordinates> -76.1333,-11.60000, 4500</coordinates>
                <altitudeMode>absolute</altitudeMode>
            </Point>
        </Placemark>
        <Placemark id="573">
            <name>Mantaro_ Usibamba</name>
            <description>Mantaro_ Usibamba: Altitude =  3605 meters</description>
            <Point id="572">
                <coordinates> -75.4743,-12.05000, 3605</coordinates>
                <altitudeMode>absolute</altitudeMode>
            </Point>
        </Placemark>
        <Placemark id="575">
            <name>Mantaro_ Viques</name>
            <description>Mantaro_ Viques: Altitude =  3186 meters</description>
            <Point id="574">
                <coordinates> -75.2174,-12.16272, 3186</coordinates>
                <altitudeMode>absolute</altitudeMode>
            </Point>
        </Placemark>
        <Placemark id="577">
            <name>Mantaro_ Wayllapampa</name>
            <description>Mantaro_ Wayllapampa: Altitude =  2518 meters</description>
            <Point id="576">
                <coordinates> -74.2166,-13.07638, 2518</coordinates>
                <altitudeMode>absolute</altitudeMode>
            </Point>
        </Placemark>
        <Placemark id="579">
            <name>Mantaro_ Yantac</name>
            <description>Mantaro_ Yantac: Altitude =  4600 meters</description>
            <Point id="578">
                <coordinates> -76.4000,-11.33333, 4600</coordinates>
                <altitudeMode>absolute</altitudeMode>
            </Point>
        </Placemark>
        <Placemark id="581">
            <name>Mantaro_ Yauli</name>
            <description>Mantaro_ Yauli: Altitude =  4141 meters</description>
            <Point id="580">
                <coordinates> -76.0833,-11.66666, 4141</coordinates>
                <altitudeMode>absolute</altitudeMode>
            </Point>
        </Placemark>
        <Placemark id="583">
            <name>Pachitea_ Esperanza</name>
            <description>Pachitea_ Esperanza: Altitude =  1200 meters</description>
            <Point id="582">
                <coordinates> -75.2502,-10.16694, 1200</coordinates>
                <altitudeMode>absolute</altitudeMode>
            </Point>
        </Placemark>
        <Placemark id="585">
            <name>Pachitea_ Iscozacin</name>
            <description>Pachitea_ Iscozacin: Altitude =  1200 meters</description>
            <Point id="584">
                <coordinates> -75.1500,-10.18333, 1200</coordinates>
                <altitudeMode>absolute</altitudeMode>
            </Point>
        </Placemark>
        <Placemark id="587">
            <name>Pachitea_ Macuya</name>
            <description>Pachitea_ Macuya: Altitude = 225 meters</description>
            <Point id="586">
                <coordinates>-75.00416,-8.872222,225</coordinates>
                <altitudeMode>absolute</altitudeMode>
            </Point>
        </Placemark>
        <Placemark id="589">
            <name>Pachitea_ Oxapampa</name>
            <description>Pachitea_ Oxapampa: Altitude =  1850 meters</description>
            <Point id="588">
                <coordinates> -75.3897,-10.59277, 1850</coordinates>
                <altitudeMode>absolute</altitudeMode>
            </Point>
        </Placemark>
        <Placemark id="591">
            <name>Pachitea_ Pozuzo</name>
            <description>Pachitea_ Pozuzo: Altitude =  1000 meters</description>
            <Point id="590">
                <coordinates> -75.5591,-10.05083, 1000</coordinates>
                <altitudeMode>absolute</altitudeMode>
            </Point>
        </Placemark>
        <Placemark id="593">
            <name>Pachitea_ Puerto Bermudez</name>
            <description>Pachitea_ Puerto Bermudez: Altitude =  300 meters</description>
            <Point id="592">
                <coordinates> -74.9002,-10.30027, 300</coordinates>
                <altitudeMode>absolute</altitudeMode>
            </Point>
        </Placemark>
        <Placemark id="595">
            <name>Pachitea_ Puerto Inca</name>
            <description>Pachitea_ Puerto Inca: Altitude = 249 meters</description>
            <Point id="594">
                <coordinates>-74.96583,-9.372778,249</coordinates>
                <altitudeMode>absolute</altitudeMode>
            </Point>
        </Placemark>
        <Placemark id="597">
            <name>Pachitea_ Puerto Victoria</name>
            <description>Pachitea_ Puerto Victoria: Altitude = 227 meters</description>
            <Point id="596">
                <coordinates>-74.93361,-9.866944,227</coordinates>
                <altitudeMode>absolute</altitudeMode>
            </Point>
        </Placemark>
        <Placemark id="599">
            <name>Pachitea_ San Miguel De Bocaz</name>
            <description>Pachitea_ San Miguel De Bocaz: Altitude =  1075 meters</description>
            <Point id="598">
                <coordinates> -75.1502,-10.63361, 1075</coordinates>
                <altitudeMode>absolute</altitudeMode>
            </Point>
        </Placemark>
        <Placemark id="601">
            <name>Pachitea_ Tournavista</name>
            <description>Pachitea_ Tournavista: Altitude = 213 meters</description>
            <Point id="600">
                <coordinates>-74.71666,-8.929722,213</coordinates>
                <altitudeMode>absolute</altitudeMode>
            </Point>
        </Placemark>
        <Placemark id="603">
            <name>Perene_ Chontabamba</name>
            <description>Perene_ Chontabamba: Altitude =  1247 meters</description>
            <Point id="602">
                <coordinates> -75.3527,-11.25972, 1247</coordinates>
                <altitudeMode>absolute</altitudeMode>
            </Point>
        </Placemark>
        <Placemark id="605">
            <name>Perene_ Comas</name>
            <description>Perene_ Comas: Altitude =  3300 meters</description>
            <Point id="604">
                <coordinates> -75.1288,-11.74833, 3300</coordinates>
                <altitudeMode>absolute</altitudeMode>
            </Point>
        </Placemark>
        <Placemark id="607">
            <name>Perene_ Huasahuasi</name>
            <description>Perene_ Huasahuasi: Altitude =  2750 meters</description>
            <Point id="606">
                <coordinates> -75.6319,-11.26944, 2750</coordinates>
                <altitudeMode>absolute</altitudeMode>
            </Point>
        </Placemark>
        <Placemark id="609">
            <name>Perene_ Huasahuasi2</name>
            <description>Perene_ Huasahuasi2: Altitude =  2750 meters</description>
            <Point id="608">
                <coordinates> -75.6319,-11.26944, 2750</coordinates>
                <altitudeMode>absolute</altitudeMode>
            </Point>
        </Placemark>
        <Placemark id="611">
            <name>Perene_ La Granja</name>
            <description>Perene_ La Granja: Altitude =  2068 meters</description>
            <Point id="610">
                <coordinates> -75.2166,-10.71666, 2068</coordinates>
                <altitudeMode>absolute</altitudeMode>
            </Point>
        </Placemark>
        <Placemark id="613">
            <name>Perene_ Mazamari</name>
            <description>Perene_ Mazamari: Altitude =  700 meters</description>
            <Point id="612">
                <coordinates> -74.5500,-11.25000, 700</coordinates>
                <altitudeMode>absolute</altitudeMode>
            </Point>
        </Placemark>
        <Placemark id="615">
            <name>Perene_ Meza Pata</name>
            <description>Perene_ Meza Pata: Altitude =  1612 meters</description>
            <Point id="614">
                <coordinates> -75.3833,-10.71666, 1612</coordinates>
                <altitudeMode>absolute</altitudeMode>
            </Point>
        </Placemark>
        <Placemark id="617">
            <name>Perene_ Pampa Whaley</name>
            <description>Perene_ Pampa Whaley: Altitude =  960 meters</description>
            <Point id="616">
                <coordinates> -75.2500,-10.90000, 960</coordinates>
                <altitudeMode>absolute</altitudeMode>
            </Point>
        </Placemark>
        <Placemark id="619">
            <name>Perene_ Perene</name>
            <description>Perene_ Perene: Altitude =  660 meters</description>
            <Point id="618">
                <coordinates> -74.8929,-10.91427, 660</coordinates>
                <altitudeMode>absolute</altitudeMode>
            </Point>
        </Placemark>
        <Placemark id="621">
            <name>Perene_ Pichanaky</name>
            <description>Perene_ Pichanaky: Altitude =  546 meters</description>
            <Point id="620">
                <coordinates> -74.8669,-10.93333, 546</coordinates>
                <altitudeMode>absolute</altitudeMode>
            </Point>
        </Placemark>
        <Placemark id="623">
            <name>Perene_ Puerto Ocopa</name>
            <description>Perene_ Puerto Ocopa: Altitude =  305 meters</description>
            <Point id="622">
                <coordinates> -74.3072,-11.14527, 305</coordinates>
                <altitudeMode>absolute</altitudeMode>
            </Point>
        </Placemark>
        <Placemark id="625">
            <name>Perene_ Ricran</name>
            <description>Perene_ Ricran: Altitude =  3500 meters</description>
            <Point id="624">
                <coordinates> -75.5326,-11.55605, 3500</coordinates>
                <altitudeMode>absolute</altitudeMode>
            </Point>
        </Placemark>
        <Placemark id="627">
            <name>Perene_ Runatullo</name>
            <description>Perene_ Runatullo: Altitude =  3186 meters</description>
            <Point id="626">
                <coordinates> -75.0508,-11.59305, 3186</coordinates>
                <altitudeMode>absolute</altitudeMode>
            </Point>
        </Placemark>
        <Placemark id="629">
            <name>Perene_ San Eloy De Singayac</name>
            <description>Perene_ San Eloy De Singayac: Altitude =  1500 meters</description>
            <Point id="628">
                <coordinates> -75.2833,-11.25000, 1500</coordinates>
                <altitudeMode>absolute</altitudeMode>
            </Point>
        </Placemark>
        <Placemark id="631">
            <name>Perene_ San Eloy De Singayac2</name>
            <description>Perene_ San Eloy De Singayac2: Altitude =  1500 meters</description>
            <Point id="630">
                <coordinates> -75.2833,-11.25000, 1500</coordinates>
                <altitudeMode>absolute</altitudeMode>
            </Point>
        </Placemark>
        <Placemark id="633">
            <name>Perene_ Satipo</name>
            <description>Perene_ Satipo: Altitude =  660 meters</description>
            <Point id="632">
                <coordinates> -74.6086,-11.22444, 660</coordinates>
                <altitudeMode>absolute</altitudeMode>
            </Point>
        </Placemark>
        <Placemark id="635">
            <name>Perene_ Satipo2</name>
            <description>Perene_ Satipo2: Altitude =  660 meters</description>
            <Point id="634">
                <coordinates> -74.6086,-11.22444, 660</coordinates>
                <altitudeMode>absolute</altitudeMode>
            </Point>
        </Placemark>
        <Placemark id="637">
            <name>Perene_ Tarma</name>
            <description>Perene_ Tarma: Altitude =  3000 meters</description>
            <Point id="636">
                <coordinates> -75.6913,-11.39666, 3000</coordinates>
                <altitudeMode>absolute</altitudeMode>
            </Point>
        </Placemark>
        <Placemark id="639">
            <name>Perene_ Villa Rica</name>
            <description>Perene_ Villa Rica: Altitude = 470 meters</description>
            <Point id="638">
                <coordinates> -75.2625,-10.75416,470</coordinates>
                <altitudeMode>absolute</altitudeMode>
            </Point>
        </Placemark>
    </Document>
</kml>
