<?xml version="1.0" encoding="UTF-8"?>
<kml xmlns="http://www.opengis.net/kml/2.2" xmlns:gx="http://www.google.com/kml/ext/2.2">
    <Document id="5581">
        <Placemark id="5583">
            <name>Crisnejas_ Augusto Weberbauer</name>
            <description>Crisnejas_ Augusto Weberbauer: Altitude = 2536 meters</description>
            <Point id="5582">
                <coordinates>-78.50000,-7.166667,2536</coordinates>
                <altitudeMode>absolute</altitudeMode>
            </Point>
        </Placemark>
        <Placemark id="5585">
            <name>Crisnejas_ Cachachi</name>
            <description>Crisnejas_ Cachachi: Altitude = 3140 meters</description>
            <Point id="5584">
                <coordinates>-78.26869,-7.450944,3140</coordinates>
                <altitudeMode>absolute</altitudeMode>
            </Point>
        </Placemark>
        <Placemark id="5587">
            <name>Crisnejas_ Cajabamba</name>
            <description>Crisnejas_ Cajabamba: Altitude = 2480 meters</description>
            <Point id="5586">
                <coordinates>-78.05111,-7.621667,2480</coordinates>
                <altitudeMode>absolute</altitudeMode>
            </Point>
        </Placemark>
        <Placemark id="5589">
            <name>Crisnejas_ Huamachuco</name>
            <description>Crisnejas_ Huamachuco: Altitude = 3030 meters</description>
            <Point id="5588">
                <coordinates>-78.04000,-7.819278,3030</coordinates>
                <altitudeMode>absolute</altitudeMode>
            </Point>
        </Placemark>
        <Placemark id="5591">
            <name>Crisnejas_ Huangacocha</name>
            <description>Crisnejas_ Huangacocha: Altitude = 3763 meters</description>
            <Point id="5590">
                <coordinates>-78.06810,-7.937608,3763</coordinates>
                <altitudeMode>absolute</altitudeMode>
            </Point>
        </Placemark>
        <Placemark id="5593">
            <name>Crisnejas_ Jesus</name>
            <description>Crisnejas_ Jesus: Altitude = 2545 meters</description>
            <Point id="5592">
                <coordinates>-78.41263,-7.229444,2545</coordinates>
                <altitudeMode>absolute</altitudeMode>
            </Point>
        </Placemark>
        <Placemark id="5595">
            <name>Crisnejas_ La Encañada</name>
            <description>Crisnejas_ La Encañada: Altitude = 2980 meters</description>
            <Point id="5594">
                <coordinates>-78.33313,-7.123272,2980</coordinates>
                <altitudeMode>absolute</altitudeMode>
            </Point>
        </Placemark>
        <Placemark id="5597">
            <name>Crisnejas_ Namora</name>
            <description>Crisnejas_ Namora: Altitude = 2700 meters</description>
            <Point id="5596">
                <coordinates>-78.33333,-7.200000,2700</coordinates>
                <altitudeMode>absolute</altitudeMode>
            </Point>
        </Placemark>
        <Placemark id="5599">
            <name>Crisnejas_ San Marcos</name>
            <description>Crisnejas_ San Marcos: Altitude = 2190 meters</description>
            <Point id="5598">
                <coordinates>-78.17258,-7.322500,2190</coordinates>
                <altitudeMode>absolute</altitudeMode>
            </Point>
        </Placemark>
        <Placemark id="5601">
            <name>Crisnejas_ Sondor-Matara</name>
            <description>Crisnejas_ Sondor-Matara: Altitude = 2908 meters</description>
            <Point id="5600">
                <coordinates>-78.21256,-7.236875,2908</coordinates>
                <altitudeMode>absolute</altitudeMode>
            </Point>
        </Placemark>
        <Placemark id="5603">
            <name>Intercuenca Alto Huallaga_ Aucayacu</name>
            <description>Intercuenca Alto Huallaga_ Aucayacu: Altitude = 586 meters</description>
            <Point id="5602">
                <coordinates>-76.11170,-8.929869,586</coordinates>
                <altitudeMode>absolute</altitudeMode>
            </Point>
        </Placemark>
        <Placemark id="5605">
            <name>Intercuenca Alto Huallaga_ Campanilla</name>
            <description>Intercuenca Alto Huallaga_ Campanilla: Altitude = 290 meters</description>
            <Point id="5604">
                <coordinates>-76.67000,-7.442200,290</coordinates>
                <altitudeMode>absolute</altitudeMode>
            </Point>
        </Placemark>
        <Placemark id="5607">
            <name>Intercuenca Alto Huallaga_ Canchan</name>
            <description>Intercuenca Alto Huallaga_ Canchan: Altitude = 1986 meters</description>
            <Point id="5606">
                <coordinates>-76.28805,-9.948889,1986</coordinates>
                <altitudeMode>absolute</altitudeMode>
            </Point>
        </Placemark>
        <Placemark id="5609">
            <name>Intercuenca Alto Huallaga_ Carpish</name>
            <description>Intercuenca Alto Huallaga_ Carpish: Altitude = 1950 meters</description>
            <Point id="5608">
                <coordinates>-76.08361,-9.666944,1950</coordinates>
                <altitudeMode>absolute</altitudeMode>
            </Point>
        </Placemark>
        <Placemark id="5611">
            <name>Intercuenca Alto Huallaga_ Chaglla</name>
            <description>Intercuenca Alto Huallaga_ Chaglla: Altitude = 2800 meters</description>
            <Point id="5610">
                <coordinates>-75.91500,-9.847222,2800</coordinates>
                <altitudeMode>absolute</altitudeMode>
            </Point>
        </Placemark>
        <Placemark id="5613">
            <name>Intercuenca Alto Huallaga_ Huanuco</name>
            <description>Intercuenca Alto Huallaga_ Huanuco: Altitude = 1947 meters</description>
            <Point id="5612">
                <coordinates>-76.24800,-9.961011,1947</coordinates>
                <altitudeMode>absolute</altitudeMode>
            </Point>
        </Placemark>
        <Placemark id="5615">
            <name>Intercuenca Alto Huallaga_ Jacas Chico</name>
            <description>Intercuenca Alto Huallaga_ Jacas Chico: Altitude = 3673 meters</description>
            <Point id="5614">
                <coordinates>-76.50027,-9.883611,3673</coordinates>
                <altitudeMode>absolute</altitudeMode>
            </Point>
        </Placemark>
        <Placemark id="5617">
            <name>Intercuenca Alto Huallaga_ La Divisoria</name>
            <description>Intercuenca Alto Huallaga_ La Divisoria: Altitude = 1961 meters</description>
            <Point id="5616">
                <coordinates>-75.81393,-9.200908,1961</coordinates>
                <altitudeMode>absolute</altitudeMode>
            </Point>
        </Placemark>
        <Placemark id="5619">
            <name>Intercuenca Alto Huallaga_ San Rafael</name>
            <description>Intercuenca Alto Huallaga_ San Rafael: Altitude =  2722 meters</description>
            <Point id="5618">
                <coordinates> -76.1694,-10.32166, 2722</coordinates>
                <altitudeMode>absolute</altitudeMode>
            </Point>
        </Placemark>
        <Placemark id="5621">
            <name>Intercuenca Alto Huallaga_ Tananta</name>
            <description>Intercuenca Alto Huallaga_ Tananta: Altitude = 480 meters</description>
            <Point id="5620">
                <coordinates>-76.59555,-8.109722,480</coordinates>
                <altitudeMode>absolute</altitudeMode>
            </Point>
        </Placemark>
        <Placemark id="5623">
            <name>Intercuenca Alto Huallaga_ Tingo Maria</name>
            <description>Intercuenca Alto Huallaga_ Tingo Maria: Altitude = 660 meters</description>
            <Point id="5622">
                <coordinates>-75.99972,-9.288056,660</coordinates>
                <altitudeMode>absolute</altitudeMode>
            </Point>
        </Placemark>
        <Placemark id="5625">
            <name>Intercuenca Alto Huallaga_ Tulumayo</name>
            <description>Intercuenca Alto Huallaga_ Tulumayo: Altitude = 640 meters</description>
            <Point id="5624">
                <coordinates>-75.90027,-9.100278,640</coordinates>
                <altitudeMode>absolute</altitudeMode>
            </Point>
        </Placemark>
        <Placemark id="5627">
            <name>Intercuenca Alto Huallaga_ Yanahuanca</name>
            <description>Intercuenca Alto Huallaga_ Yanahuanca: Altitude =  3150 meters</description>
            <Point id="5626">
                <coordinates> -76.5080,-10.49138, 3150</coordinates>
                <altitudeMode>absolute</altitudeMode>
            </Point>
        </Placemark>
        <Placemark id="5629">
            <name>Intercuenca Alto marañon IV_ Bambamarca</name>
            <description>Intercuenca Alto marañon IV_ Bambamarca: Altitude = 2536 meters</description>
            <Point id="5628">
                <coordinates>-78.51833,-6.676389,2536</coordinates>
                <altitudeMode>absolute</altitudeMode>
            </Point>
        </Placemark>
        <Placemark id="5631">
            <name>Intercuenca Alto marañon IV_ Celendin</name>
            <description>Intercuenca Alto marañon IV_ Celendin: Altitude = 2620 meters</description>
            <Point id="5630">
                <coordinates>-78.12217,-6.850000,2620</coordinates>
                <altitudeMode>absolute</altitudeMode>
            </Point>
        </Placemark>
        <Placemark id="5633">
            <name>Intercuenca Alto marañon IV_ El Palto</name>
            <description>Intercuenca Alto marañon IV_ El Palto: Altitude = 149 meters</description>
            <Point id="5632">
                <coordinates>-78.47647,-5.986431,149</coordinates>
                <altitudeMode>absolute</altitudeMode>
            </Point>
        </Placemark>
        <Placemark id="5635">
            <name>Intercuenca Alto marañon IV_ Quebrada Shugar</name>
            <description>Intercuenca Alto marañon IV_ Quebrada Shugar: Altitude = 3292.7 meters</description>
            <Point id="5634">
                <coordinates>-78.45694,-6.687778,3292.7</coordinates>
                <altitudeMode>absolute</altitudeMode>
            </Point>
        </Placemark>
        <Placemark id="5637">
            <name>Intercuenca Alto marañon V_ Chavin2</name>
            <description>Intercuenca Alto marañon V_ Chavin2: Altitude = 3210 meters</description>
            <Point id="5636">
                <coordinates>-77.17527,-9.586028,3210</coordinates>
                <altitudeMode>absolute</altitudeMode>
            </Point>
        </Placemark>
        <Placemark id="5639">
            <name>Intercuenca Alto marañon V_ Dos De Mayo</name>
            <description>Intercuenca Alto marañon V_ Dos De Mayo: Altitude = 3650 meters</description>
            <Point id="5638">
                <coordinates>-76.74552,-9.625222,3650</coordinates>
                <altitudeMode>absolute</altitudeMode>
            </Point>
        </Placemark>
        <Placemark id="5641">
            <name>Intercuenca Alto marañon V_ Pomabamba</name>
            <description>Intercuenca Alto marañon V_ Pomabamba: Altitude = 3000 meters</description>
            <Point id="5640">
                <coordinates>-77.46666,-8.783333,3000</coordinates>
                <altitudeMode>absolute</altitudeMode>
            </Point>
        </Placemark>
        <Placemark id="5643">
            <name>Intercuenca Alto marañon V_ Sihuas</name>
            <description>Intercuenca Alto marañon V_ Sihuas: Altitude = 2716 meters</description>
            <Point id="5642">
                <coordinates>-77.63163,-8.546481,2716</coordinates>
                <altitudeMode>absolute</altitudeMode>
            </Point>
        </Placemark>
        <Placemark id="5645">
            <name>Mantaro_ Acobamba</name>
            <description>Mantaro_ Acobamba: Altitude =  3236 meters</description>
            <Point id="5644">
                <coordinates> -74.5677,-12.83750, 3236</coordinates>
                <altitudeMode>absolute</altitudeMode>
            </Point>
        </Placemark>
        <Placemark id="5647">
            <name>Mantaro_ Acostambo</name>
            <description>Mantaro_ Acostambo: Altitude =  3650 meters</description>
            <Point id="5646">
                <coordinates> -75.0356,-12.34233, 3650</coordinates>
                <altitudeMode>absolute</altitudeMode>
            </Point>
        </Placemark>
        <Placemark id="5649">
            <name>Mantaro_ Carhuacayan</name>
            <description>Mantaro_ Carhuacayan: Altitude =  4150 meters</description>
            <Point id="5648">
                <coordinates> -76.2833,-11.20000, 4150</coordinates>
                <altitudeMode>absolute</altitudeMode>
            </Point>
        </Placemark>
        <Placemark id="5651">
            <name>Mantaro_ Cerro De Pasco</name>
            <description>Mantaro_ Cerro De Pasco: Altitude =  4260 meters</description>
            <Point id="5650">
                <coordinates> -76.2641,-10.69333, 4260</coordinates>
                <altitudeMode>absolute</altitudeMode>
            </Point>
        </Placemark>
        <Placemark id="5653">
            <name>Mantaro_ Colcabamba</name>
            <description>Mantaro_ Colcabamba: Altitude = 780 meters</description>
            <Point id="5652">
                <coordinates> -74.6775,-12.40638,780</coordinates>
                <altitudeMode>absolute</altitudeMode>
            </Point>
        </Placemark>
        <Placemark id="5655">
            <name>Mantaro_ Huancalpi</name>
            <description>Mantaro_ Huancalpi: Altitude =  3800 meters</description>
            <Point id="5654">
                <coordinates> -75.2419,-12.58000, 3800</coordinates>
                <altitudeMode>absolute</altitudeMode>
            </Point>
        </Placemark>
        <Placemark id="5657">
            <name>Mantaro_ Huancavelica</name>
            <description>Mantaro_ Huancavelica: Altitude =  3676 meters</description>
            <Point id="5656">
                <coordinates> -75.0122,-12.78055, 3676</coordinates>
                <altitudeMode>absolute</altitudeMode>
            </Point>
        </Placemark>
        <Placemark id="5659">
            <name>Mantaro_ Huayao</name>
            <description>Mantaro_ Huayao: Altitude =  3308 meters</description>
            <Point id="5658">
                <coordinates> -75.3227,-12.03833, 3308</coordinates>
                <altitudeMode>absolute</altitudeMode>
            </Point>
        </Placemark>
        <Placemark id="5661">
            <name>Mantaro_ Ingenio</name>
            <description>Mantaro_ Ingenio: Altitude =  3450 meters</description>
            <Point id="5660">
                <coordinates> -75.2558,-11.87944, 3450</coordinates>
                <altitudeMode>absolute</altitudeMode>
            </Point>
        </Placemark>
        <Placemark id="5663">
            <name>Mantaro_ Jauja</name>
            <description>Mantaro_ Jauja: Altitude =  3322 meters</description>
            <Point id="5662">
                <coordinates> -75.4744,-11.78361, 3322</coordinates>
                <altitudeMode>absolute</altitudeMode>
            </Point>
        </Placemark>
        <Placemark id="5665">
            <name>Mantaro_ Junin</name>
            <description>Mantaro_ Junin: Altitude =  4120 meters</description>
            <Point id="5664">
                <coordinates> -75.9997,-11.13527, 4120</coordinates>
                <altitudeMode>absolute</altitudeMode>
            </Point>
        </Placemark>
        <Placemark id="5667">
            <name>Mantaro_ La Oroya</name>
            <description>Mantaro_ La Oroya: Altitude = 860 meters</description>
            <Point id="5666">
                <coordinates> -75.9585,-11.56762,860</coordinates>
                <altitudeMode>absolute</altitudeMode>
            </Point>
        </Placemark>
        <Placemark id="5669">
            <name>Mantaro_ Laive</name>
            <description>Mantaro_ Laive: Altitude =  3990 meters</description>
            <Point id="5668">
                <coordinates> -75.3605,-12.25222, 3990</coordinates>
                <altitudeMode>absolute</altitudeMode>
            </Point>
        </Placemark>
        <Placemark id="5671">
            <name>Mantaro_ Lircay</name>
            <description>Mantaro_ Lircay: Altitude =  3150 meters</description>
            <Point id="5670">
                <coordinates> -74.7177,-12.98166, 3150</coordinates>
                <altitudeMode>absolute</altitudeMode>
            </Point>
        </Placemark>
        <Placemark id="5673">
            <name>Mantaro_ Marcapomacocha</name>
            <description>Mantaro_ Marcapomacocha: Altitude =  4479 meters</description>
            <Point id="5672">
                <coordinates> -76.3250,-11.40444, 4479</coordinates>
                <altitudeMode>absolute</altitudeMode>
            </Point>
        </Placemark>
        <Placemark id="5675">
            <name>Mantaro_ Pampas</name>
            <description>Mantaro_ Pampas: Altitude =  3260 meters</description>
            <Point id="5674">
                <coordinates> -74.8885,-12.30000, 3260</coordinates>
                <altitudeMode>absolute</altitudeMode>
            </Point>
        </Placemark>
        <Placemark id="5677">
            <name>Mantaro_ Paucarbamba</name>
            <description>Mantaro_ Paucarbamba: Altitude =  3000 meters</description>
            <Point id="5676">
                <coordinates> -74.6051,-12.45198, 3000</coordinates>
                <altitudeMode>absolute</altitudeMode>
            </Point>
        </Placemark>
        <Placemark id="5679">
            <name>Mantaro_ Pilchaca</name>
            <description>Mantaro_ Pilchaca: Altitude =  3570 meters</description>
            <Point id="5678">
                <coordinates> -75.0833,-12.35000, 3570</coordinates>
                <altitudeMode>absolute</altitudeMode>
            </Point>
        </Placemark>
        <Placemark id="5681">
            <name>Mantaro_ Salcabamba</name>
            <description>Mantaro_ Salcabamba: Altitude =  2900 meters</description>
            <Point id="5680">
                <coordinates> -74.8166,-12.15000, 2900</coordinates>
                <altitudeMode>absolute</altitudeMode>
            </Point>
        </Placemark>
        <Placemark id="5683">
            <name>Mantaro_ San Juan De Jarpa</name>
            <description>Mantaro_ San Juan De Jarpa: Altitude =  3726 meters</description>
            <Point id="5682">
                <coordinates> -75.4319,-12.12388, 3726</coordinates>
                <altitudeMode>absolute</altitudeMode>
            </Point>
        </Placemark>
        <Placemark id="5685">
            <name>Mantaro_ San Pedro De Cachi</name>
            <description>Mantaro_ San Pedro De Cachi: Altitude =  3188 meters</description>
            <Point id="5684">
                <coordinates> -74.3919,-13.08361, 3188</coordinates>
                <altitudeMode>absolute</altitudeMode>
            </Point>
        </Placemark>
        <Placemark id="5687">
            <name>Mantaro_ Santa Ana</name>
            <description>Mantaro_ Santa Ana: Altitude =  3295 meters</description>
            <Point id="5686">
                <coordinates> -75.2208,-12.00416, 3295</coordinates>
                <altitudeMode>absolute</altitudeMode>
            </Point>
        </Placemark>
        <Placemark id="5689">
            <name>Mantaro_ Viques</name>
            <description>Mantaro_ Viques: Altitude =  3186 meters</description>
            <Point id="5688">
                <coordinates> -75.2174,-12.16272, 3186</coordinates>
                <altitudeMode>absolute</altitudeMode>
            </Point>
        </Placemark>
        <Placemark id="5691">
            <name>Mantaro_ Wayllapampa</name>
            <description>Mantaro_ Wayllapampa: Altitude =  2518 meters</description>
            <Point id="5690">
                <coordinates> -74.2166,-13.07638, 2518</coordinates>
                <altitudeMode>absolute</altitudeMode>
            </Point>
        </Placemark>
        <Placemark id="5693">
            <name>Mantaro_ Yantac</name>
            <description>Mantaro_ Yantac: Altitude =  4600 meters</description>
            <Point id="5692">
                <coordinates> -76.4000,-11.33333, 4600</coordinates>
                <altitudeMode>absolute</altitudeMode>
            </Point>
        </Placemark>
        <Placemark id="5695">
            <name>Mantaro_ Yauli</name>
            <description>Mantaro_ Yauli: Altitude =  4141 meters</description>
            <Point id="5694">
                <coordinates> -76.0833,-11.66666, 4141</coordinates>
                <altitudeMode>absolute</altitudeMode>
            </Point>
        </Placemark>
        <Placemark id="5697">
            <name>Pachitea_ Oxapampa</name>
            <description>Pachitea_ Oxapampa: Altitude =  1850 meters</description>
            <Point id="5696">
                <coordinates> -75.3897,-10.59277, 1850</coordinates>
                <altitudeMode>absolute</altitudeMode>
            </Point>
        </Placemark>
        <Placemark id="5699">
            <name>Pachitea_ Pozuzo</name>
            <description>Pachitea_ Pozuzo: Altitude =  1000 meters</description>
            <Point id="5698">
                <coordinates> -75.5591,-10.05083, 1000</coordinates>
                <altitudeMode>absolute</altitudeMode>
            </Point>
        </Placemark>
        <Placemark id="5701">
            <name>Pachitea_ Puerto Inca</name>
            <description>Pachitea_ Puerto Inca: Altitude = 249 meters</description>
            <Point id="5700">
                <coordinates>-74.96583,-9.372778,249</coordinates>
                <altitudeMode>absolute</altitudeMode>
            </Point>
        </Placemark>
        <Placemark id="5703">
            <name>Pachitea_ Tournavista</name>
            <description>Pachitea_ Tournavista: Altitude = 213 meters</description>
            <Point id="5702">
                <coordinates>-74.71666,-8.929722,213</coordinates>
                <altitudeMode>absolute</altitudeMode>
            </Point>
        </Placemark>
        <Placemark id="5705">
            <name>Perene_ Comas</name>
            <description>Perene_ Comas: Altitude =  3300 meters</description>
            <Point id="5704">
                <coordinates> -75.1288,-11.74833, 3300</coordinates>
                <altitudeMode>absolute</altitudeMode>
            </Point>
        </Placemark>
        <Placemark id="5707">
            <name>Perene_ Huasahuasi</name>
            <description>Perene_ Huasahuasi: Altitude =  2750 meters</description>
            <Point id="5706">
                <coordinates> -75.6319,-11.26944, 2750</coordinates>
                <altitudeMode>absolute</altitudeMode>
            </Point>
        </Placemark>
        <Placemark id="5709">
            <name>Perene_ Huasahuasi2</name>
            <description>Perene_ Huasahuasi2: Altitude =  2750 meters</description>
            <Point id="5708">
                <coordinates> -75.6319,-11.26944, 2750</coordinates>
                <altitudeMode>absolute</altitudeMode>
            </Point>
        </Placemark>
        <Placemark id="5711">
            <name>Perene_ Puerto Ocopa</name>
            <description>Perene_ Puerto Ocopa: Altitude =  305 meters</description>
            <Point id="5710">
                <coordinates> -74.3072,-11.14527, 305</coordinates>
                <altitudeMode>absolute</altitudeMode>
            </Point>
        </Placemark>
        <Placemark id="5713">
            <name>Perene_ Ricran</name>
            <description>Perene_ Ricran: Altitude =  3500 meters</description>
            <Point id="5712">
                <coordinates> -75.5326,-11.55605, 3500</coordinates>
                <altitudeMode>absolute</altitudeMode>
            </Point>
        </Placemark>
        <Placemark id="5715">
            <name>Perene_ Runatullo</name>
            <description>Perene_ Runatullo: Altitude =  3186 meters</description>
            <Point id="5714">
                <coordinates> -75.0508,-11.59305, 3186</coordinates>
                <altitudeMode>absolute</altitudeMode>
            </Point>
        </Placemark>
        <Placemark id="5717">
            <name>Perene_ Satipo</name>
            <description>Perene_ Satipo: Altitude =  660 meters</description>
            <Point id="5716">
                <coordinates> -74.6086,-11.22444, 660</coordinates>
                <altitudeMode>absolute</altitudeMode>
            </Point>
        </Placemark>
        <Placemark id="5719">
            <name>Perene_ Satipo2</name>
            <description>Perene_ Satipo2: Altitude =  660 meters</description>
            <Point id="5718">
                <coordinates> -74.6086,-11.22444, 660</coordinates>
                <altitudeMode>absolute</altitudeMode>
            </Point>
        </Placemark>
        <Placemark id="5721">
            <name>Perene_ Tarma</name>
            <description>Perene_ Tarma: Altitude =  3000 meters</description>
            <Point id="5720">
                <coordinates> -75.6913,-11.39666, 3000</coordinates>
                <altitudeMode>absolute</altitudeMode>
            </Point>
        </Placemark>
    </Document>
</kml>
